SL-14 R/B               
1 21423U 91042B   26013.65576389  .00000316  00000+0  36981-4 0  9999
2 21423  82.4929 271.7984 0018478  64.1408 296.1709 14.81773191844920
ERS-1                   
1 21574U 91050A   26013.64386153  .00000244  00000+0  92880-4 0  9992
2 21574  98.7898  30.4960 0032090   7.5470 352.6193 14.39394942807810
ARIANE 40 R/B           
1 21610U 91050F   26013.13214428  .00000242  00000+0  85107-4 0  9994
2 21610  98.2121  67.4232 0002227 225.9602 134.1405 14.42843131810983
INTERCOSMOS 25          
1 21819U 91086A   26013.42179425  .00001264  00000+0  25072-3 0  9992
2 21819  82.6086 343.4112 1485977 236.0584 109.0453 12.11851931489993
SL-8 R/B                
1 21876U 92008B   26013.55223656  .00000065  00000+0  51569-4 0  9999
2 21876  82.9288 308.7870 0033449 289.7934 243.6094 13.75966031701839
SL-8 R/B                
1 21938U 92020B   26013.55533241  .00000159  00000+0  14897-3 0  9992
2 21938  82.9294 194.6907 0030253  91.7774 327.5478 13.75537326693559
USA 81                  
1 21949U 92023A   26013.47075352  .00000189  00000+0  62543-4 0  9997
2 21949  85.0100 163.2770 0001630 117.5532 242.5827 14.32341830 86880
COSMOS 2219             
1 22219U 92076A   26013.55715273 -.00000002  00000+0  23590-4 0  9992
2 22219  71.0618 133.3228 0020609 283.1939  76.6884 14.14081352710584
SL-16 R/B               
1 22220U 92076B   26013.57998812  .00000216  00000+0  13168-3 0  9993
2 22220  71.0016 304.4613 0013045 189.5465 343.7504 14.16848965714029
COSMOS 2221             
1 22236U 92080A   26013.59246392  .00001382  00000+0  12092-3 0  9996
2 22236  82.5055 331.8343 0015315  24.4912 335.7034 14.95922712772557
SL-16 R/B               
1 22285U 92093B   26013.54597034  .00000249  00000+0  15197-3 0  9991
2 22285  71.0220 120.0298 0003596   0.2903 359.8221 14.15435999705352
COSMOS 2228             
1 22286U 92094A   26013.57794999  .00001887  00000+0  16154-3 0  9998
2 22286  82.5191 290.0714 0019275 123.8893 236.4167 14.96906424767812
