CCSDS_OMM_VERS = 2.0
CREATION_DATE  = 
ORIGINATOR     = 

OBJECT_NAME    = SL-14 R/B
OBJECT_ID      = 1991-042B
CENTER_NAME    = EARTH
REF_FRAME      = TEME
TIME_SYSTEM    = UTC
MEAN_ELEMENT_THEORY = SGP/SGP4

EPOCH          = 2026-01-13T15:44:18.000096
MEAN_MOTION    = 14.81773191
ECCENTRICITY   = .00184787
INCLINATION    = 82.4929
RA_OF_ASC_NODE = 271.7984
ARG_OF_PERICENTER = 64.1408
MEAN_ANOMALY   = 296.1709

EPHEMERIS_TYPE = 0
CLASSIFICATION_TYPE = U
NORAD_CAT_ID   = 21423
ELEMENT_SET_NO = 999
REV_AT_EPOCH   = 84492
BSTAR          = .36981407E-4
MEAN_MOTION_DOT = .316E-5
MEAN_MOTION_DDOT = 0

CCSDS_OMM_VERS = 2.0
CREATION_DATE  = 
ORIGINATOR     = 

OBJECT_NAME    = ERS-1
OBJECT_ID      = 1991-050A
CENTER_NAME    = EARTH
REF_FRAME      = TEME
TIME_SYSTEM    = UTC
MEAN_ELEMENT_THEORY = SGP/SGP4

EPOCH          = 2026-01-13T15:27:09.636192
MEAN_MOTION    = 14.39394942
ECCENTRICITY   = .003209
INCLINATION    = 98.7898
RA_OF_ASC_NODE = 30.4960
ARG_OF_PERICENTER = 7.5470
MEAN_ANOMALY   = 352.6193

EPHEMERIS_TYPE = 0
CLASSIFICATION_TYPE = U
NORAD_CAT_ID   = 21574
ELEMENT_SET_NO = 999
REV_AT_EPOCH   = 80781
BSTAR          = .92880279E-4
MEAN_MOTION_DOT = .244E-5
MEAN_MOTION_DDOT = 0

CCSDS_OMM_VERS = 2.0
CREATION_DATE  = 
ORIGINATOR     = 

OBJECT_NAME    = ARIANE 40 R/B
OBJECT_ID      = 1991-050F
CENTER_NAME    = EARTH
REF_FRAME      = TEME
TIME_SYSTEM    = UTC
MEAN_ELEMENT_THEORY = SGP/SGP4

EPOCH          = 2026-01-13T03:10:17.265792
MEAN_MOTION    = 14.42843131
ECCENTRICITY   = .00022272
INCLINATION    = 98.2121
RA_OF_ASC_NODE = 67.4232
ARG_OF_PERICENTER = 225.9602
MEAN_ANOMALY   = 134.1405

EPHEMERIS_TYPE = 0
CLASSIFICATION_TYPE = U
NORAD_CAT_ID   = 21610
ELEMENT_SET_NO = 999
REV_AT_EPOCH   = 81098
BSTAR          = .85107276E-4
MEAN_MOTION_DOT = .242E-5
MEAN_MOTION_DDOT = 0

CCSDS_OMM_VERS = 2.0
CREATION_DATE  = 
ORIGINATOR     = 

OBJECT_NAME    = INTERCOSMOS 25
OBJECT_ID      = 1991-086A
CENTER_NAME    = EARTH
REF_FRAME      = TEME
TIME_SYSTEM    = UTC
MEAN_ELEMENT_THEORY = SGP/SGP4

EPOCH          = 2026-01-13T10:07:23.023200
MEAN_MOTION    = 12.11851931
ECCENTRICITY   = .1485977
INCLINATION    = 82.6086
RA_OF_ASC_NODE = 343.4112
ARG_OF_PERICENTER = 236.0584
MEAN_ANOMALY   = 109.0453

EPHEMERIS_TYPE = 0
CLASSIFICATION_TYPE = U
NORAD_CAT_ID   = 21819
ELEMENT_SET_NO = 999
REV_AT_EPOCH   = 48999
BSTAR          = .25072E-3
MEAN_MOTION_DOT = .1264E-4
MEAN_MOTION_DDOT = 0

CCSDS_OMM_VERS = 2.0
CREATION_DATE  = 
ORIGINATOR     = 

OBJECT_NAME    = SL-8 R/B
OBJECT_ID      = 1992-008B
CENTER_NAME    = EARTH
REF_FRAME      = TEME
TIME_SYSTEM    = UTC
MEAN_ELEMENT_THEORY = SGP/SGP4

EPOCH          = 2026-01-13T13:15:13.238784
MEAN_MOTION    = 13.75966031
ECCENTRICITY   = .00334499
INCLINATION    = 82.9288
RA_OF_ASC_NODE = 308.7870
ARG_OF_PERICENTER = 289.7934
MEAN_ANOMALY   = 243.6094

EPHEMERIS_TYPE = 0
CLASSIFICATION_TYPE = U
NORAD_CAT_ID   = 21876
ELEMENT_SET_NO = 999
REV_AT_EPOCH   = 70183
BSTAR          = .5156943E-4
MEAN_MOTION_DOT = .65E-6
MEAN_MOTION_DDOT = 0

CCSDS_OMM_VERS = 2.0
CREATION_DATE  = 
ORIGINATOR     = 

OBJECT_NAME    = SL-8 R/B
OBJECT_ID      = 1992-020B
CENTER_NAME    = EARTH
REF_FRAME      = TEME
TIME_SYSTEM    = UTC
MEAN_ELEMENT_THEORY = SGP/SGP4

EPOCH          = 2026-01-13T13:19:40.720224
MEAN_MOTION    = 13.75537326
ECCENTRICITY   = .00302534
INCLINATION    = 82.9294
RA_OF_ASC_NODE = 194.6907
ARG_OF_PERICENTER = 91.7774
MEAN_ANOMALY   = 327.5478

EPHEMERIS_TYPE = 0
CLASSIFICATION_TYPE = U
NORAD_CAT_ID   = 21938
ELEMENT_SET_NO = 999
REV_AT_EPOCH   = 69355
BSTAR          = .14897209E-3
MEAN_MOTION_DOT = .159E-5
MEAN_MOTION_DDOT = 0

CCSDS_OMM_VERS = 2.0
CREATION_DATE  = 
ORIGINATOR     = 

OBJECT_NAME    = USA 81
OBJECT_ID      = 1992-023A
CENTER_NAME    = EARTH
REF_FRAME      = TEME
TIME_SYSTEM    = UTC
MEAN_ELEMENT_THEORY = SGP/SGP4

EPOCH          = 2026-01-13T11:17:53.104128
MEAN_MOTION    = 14.32341830
ECCENTRICITY   = .000163
INCLINATION    = 85.0100
RA_OF_ASC_NODE = 163.2770
ARG_OF_PERICENTER = 117.5532
MEAN_ANOMALY   = 242.5827

EPHEMERIS_TYPE = 0
CLASSIFICATION_TYPE = U
NORAD_CAT_ID   = 21949
ELEMENT_SET_NO = 999
REV_AT_EPOCH   = 8688
BSTAR          = .62543E-4
MEAN_MOTION_DOT = .189E-5
MEAN_MOTION_DDOT = 0

CCSDS_OMM_VERS = 2.0
CREATION_DATE  = 
ORIGINATOR     = 

OBJECT_NAME    = COSMOS 2219
OBJECT_ID      = 1992-076A
CENTER_NAME    = EARTH
REF_FRAME      = TEME
TIME_SYSTEM    = UTC
MEAN_ELEMENT_THEORY = SGP/SGP4

EPOCH          = 2026-01-13T13:22:17.995872
MEAN_MOTION    = 14.14081352
ECCENTRICITY   = .0020609
INCLINATION    = 71.0618
RA_OF_ASC_NODE = 133.3228
ARG_OF_PERICENTER = 283.1939
MEAN_ANOMALY   = 76.6884

EPHEMERIS_TYPE = 0
CLASSIFICATION_TYPE = U
NORAD_CAT_ID   = 22219
ELEMENT_SET_NO = 999
REV_AT_EPOCH   = 71058
BSTAR          = .23590191E-4
MEAN_MOTION_DOT = -.2E-7
MEAN_MOTION_DDOT = 0

CCSDS_OMM_VERS = 2.0
CREATION_DATE  = 
ORIGINATOR     = 

OBJECT_NAME    = SL-16 R/B
OBJECT_ID      = 1992-076B
CENTER_NAME    = EARTH
REF_FRAME      = TEME
TIME_SYSTEM    = UTC
MEAN_ELEMENT_THEORY = SGP/SGP4

EPOCH          = 2026-01-13T13:55:10.973568
MEAN_MOTION    = 14.16848965
ECCENTRICITY   = .00130453
INCLINATION    = 71.0016
RA_OF_ASC_NODE = 304.4613
ARG_OF_PERICENTER = 189.5465
MEAN_ANOMALY   = 343.7504

EPHEMERIS_TYPE = 0
CLASSIFICATION_TYPE = U
NORAD_CAT_ID   = 22220
ELEMENT_SET_NO = 999
REV_AT_EPOCH   = 71402
BSTAR          = .13167892E-3
MEAN_MOTION_DOT = .216E-5
MEAN_MOTION_DDOT = 0

CCSDS_OMM_VERS = 2.0
CREATION_DATE  = 
ORIGINATOR     = 

OBJECT_NAME    = COSMOS 2221
OBJECT_ID      = 1992-080A
CENTER_NAME    = EARTH
REF_FRAME      = TEME
TIME_SYSTEM    = UTC
MEAN_ELEMENT_THEORY = SGP/SGP4

EPOCH          = 2026-01-13T14:13:08.882688
MEAN_MOTION    = 14.95922712
ECCENTRICITY   = .00153159
INCLINATION    = 82.5055
RA_OF_ASC_NODE = 331.8343
ARG_OF_PERICENTER = 24.4912
MEAN_ANOMALY   = 335.7034

EPHEMERIS_TYPE = 0
CLASSIFICATION_TYPE = U
NORAD_CAT_ID   = 22236
ELEMENT_SET_NO = 999
REV_AT_EPOCH   = 77255
BSTAR          = .12092155E-3
MEAN_MOTION_DOT = .1382E-4
MEAN_MOTION_DDOT = 0

CCSDS_OMM_VERS = 2.0
CREATION_DATE  = 
ORIGINATOR     = 

OBJECT_NAME    = SL-16 R/B
OBJECT_ID      = 1992-093B
CENTER_NAME    = EARTH
REF_FRAME      = TEME
TIME_SYSTEM    = UTC
MEAN_ELEMENT_THEORY = SGP/SGP4

EPOCH          = 2026-01-13T13:06:11.837376
MEAN_MOTION    = 14.15435999
ECCENTRICITY   = .00035969
INCLINATION    = 71.0220
RA_OF_ASC_NODE = 120.0298
ARG_OF_PERICENTER = 0.2903
MEAN_ANOMALY   = 359.8221

EPHEMERIS_TYPE = 0
CLASSIFICATION_TYPE = U
NORAD_CAT_ID   = 22285
ELEMENT_SET_NO = 999
REV_AT_EPOCH   = 70535
BSTAR          = .15196528E-3
MEAN_MOTION_DOT = .249E-5
MEAN_MOTION_DDOT = 0

CCSDS_OMM_VERS = 2.0
CREATION_DATE  = 
ORIGINATOR     = 

OBJECT_NAME    = COSMOS 2228
OBJECT_ID      = 1992-094A
CENTER_NAME    = EARTH
REF_FRAME      = TEME
TIME_SYSTEM    = UTC
MEAN_ELEMENT_THEORY = SGP/SGP4

EPOCH          = 2026-01-13T13:52:14.879136
MEAN_MOTION    = 14.96906424
ECCENTRICITY   = .00192758
INCLINATION    = 82.5191
RA_OF_ASC_NODE = 290.0714
ARG_OF_PERICENTER = 123.8893
MEAN_ANOMALY   = 236.4167

EPHEMERIS_TYPE = 0
CLASSIFICATION_TYPE = U
NORAD_CAT_ID   = 22286
ELEMENT_SET_NO = 999
REV_AT_EPOCH   = 76781
BSTAR          = .16153904E-3
MEAN_MOTION_DOT = .1887E-4
MEAN_MOTION_DDOT = 0

